[{"OBJECT_NAME":"STARLINK-32372","OBJECT_ID":"2024-210B","EPOCH":"2026-03-09T07:10:04.380384","MEAN_MOTION":15.27605117,"ECCENTRICITY":0.00018737,"INCLINATION":42.9993,"RA_OF_ASC_NODE":181.7408,"ARG_OF_PERICENTER":287.3344,"MEAN_ANOMALY":72.7303,"EPHEMERIS_TYPE":0,"CLASSIFICATION_TYPE":"U","NORAD_CAT_ID":61960,"ELEMENT_SET_NO":999,"REV_AT_EPOCH":7472,"BSTAR":0.001371145,"MEAN_MOTION_DOT":0.00037691,"MEAN_MOTION_DDOT":0},{"OBJECT_NAME":"TEVEL2-2","OBJECT_ID":"2025-052K","EPOCH":"2026-03-09T15:33:48.895776","MEAN_MOTION":15.30343745,"ECCENTRICITY":0.0004693,"INCLINATION":97.3987,"RA_OF_ASC_NODE":324.77,"ARG_OF_PERICENTER":105.793,"MEAN_ANOMALY":254.3828,"EPHEMERIS_TYPE":0,"CLASSIFICATION_TYPE":"U","NORAD_CAT_ID":63219,"ELEMENT_SET_NO":999,"REV_AT_EPOCH":5485,"BSTAR":0.00069428,"MEAN_MOTION_DOT":0.00020339,"MEAN_MOTION_DDOT":0}]
